{"type":"FeatureCollection","features":[{"type":"Feature","properties":{"gadm_id":"VNM.20.4.10_1","name":"Xuân Lao","name_gadm":"Xuân Lao","admin_type":"Xã","engtype_gadm":"Ward","boundary_source":"GADM v4.0 ADM3"},"geometry":{"type":"MultiPolygon","coordinates":[[[[103.33107757500005,21.41542625400018],[103.32331085100009,21.41411781300019],[103.319839478,21.411287308],[103.31646728600009,21.41173553600015],[103.3170700070001,21.41423034800016],[103.31640625000017,21.41678047200014],[103.31784820500019,21.422027588000162],[103.31755828900003,21.423786163000045],[103.3188934320001,21.430303574000106],[103.31848907500012,21.433855057000073],[103.31968688900008,21.438066482000067],[103.31632232600015,21.441453934000037],[103.31575012200005,21.447780610000052],[103.31900787400014,21.454994203000126],[103.32362365800014,21.457674026000063],[103.3222579950002,21.46149635300003],[103.32357788100018,21.469772338000098],[103.325592041,21.474449157000095],[103.32842254600018,21.477317809000112],[103.32524871700019,21.480920793000166],[103.32110595799998,21.482799531000182],[103.31957244900002,21.485956192000174],[103.3179168710002,21.486793518000184],[103.31848907500012,21.494379044000027],[103.317344666,21.49561309900008],[103.31721496600011,21.497524261000137],[103.31937408400006,21.497083665000048],[103.3276062000001,21.500284195000006],[103.33358001700014,21.500114440000118],[103.3347015380001,21.49863815300006],[103.33496093700018,21.496330262000185],[103.33753967300004,21.495374680000168],[103.34586334300002,21.486623765000047],[103.34925842199999,21.487192154000127],[103.3491058350001,21.478277207000133],[103.35151672300009,21.47575378400012],[103.35424041800013,21.474481584000046],[103.36080169600012,21.472944259000087],[103.36380767900005,21.472940444000074],[103.36910247700013,21.47498703000008],[103.3726348880001,21.477766038000027],[103.38205718900014,21.480024338000135],[103.4028396610002,21.48180961700018],[103.40672302200005,21.481296540000073],[103.40985107400007,21.480014801000152],[103.41085052600016,21.479076386000088],[103.41188049400012,21.47440910300014],[103.41329193000018,21.47277641400018],[103.41449737500017,21.464946747000056],[103.41320037800006,21.46124839900017],[103.40995025600012,21.456317902000137],[103.4101867670002,21.45200347800005],[103.40939331000004,21.44896316600017],[103.41455078200005,21.434499740000035],[103.41294860900013,21.427795411000147],[103.41217804000001,21.427770615000043],[103.41078949000007,21.4292640700001],[103.40517425500008,21.43116188100015],[103.40100097700008,21.43164825400015],[103.3976745610002,21.435134888000164],[103.39186096100002,21.436794280000186],[103.38798522899998,21.434204101000148],[103.38572692900004,21.4337596900001],[103.38278961100019,21.43412971500004],[103.37809753400018,21.435974122000175],[103.37964630100015,21.43001175000012],[103.37886047400008,21.42888450700019],[103.3762664800002,21.42792511000016],[103.37135315000006,21.428979873999992],[103.36617279000012,21.429073334000122],[103.35964202900004,21.427713395000126],[103.35807037300003,21.425092696999968],[103.3540267950001,21.424690246000182],[103.34915161200007,21.42838096600019],[103.34633636500007,21.429346084000088],[103.34297180200014,21.428810119000104],[103.34166717600004,21.427509308000026],[103.33770751900005,21.417587280000077],[103.33546447800018,21.416028977000053],[103.33107757500005,21.41542625400018]]]]}},{"type":"Feature","properties":{"gadm_id":"VNM.20.4.1_1","name":"Ẳng Cang","name_gadm":"Ẳng Cang","admin_type":"Xã","engtype_gadm":"Ward","boundary_source":"GADM v4.0 ADM3"},"geometry":{"type":"MultiPolygon","coordinates":[[[[103.21011352500011,21.43064689700003],[103.20310974100005,21.428876877000107],[103.2004241950001,21.428907395000124],[103.1957321160001,21.43174362100018],[103.19513702300014,21.434938430999978],[103.19364929300014,21.43633651700003],[103.18780517600004,21.437097550000033],[103.18479156500018,21.44029808000016],[103.1842956550002,21.44293403600011],[103.18290710500003,21.445295334000093],[103.18146514900013,21.44626808200013],[103.18251800600012,21.448211669999978],[103.17853546200007,21.454694749000055],[103.17709350500007,21.46707916200006],[103.17797088600008,21.469694137000147],[103.17983245800013,21.47043228199999],[103.17847442700008,21.4743099210001],[103.17819213900003,21.485488892000035],[103.18064880400016,21.487266540000064],[103.18208313100007,21.487356187000103],[103.19052886900005,21.484693527000047],[103.19180297900016,21.484975815000155],[103.19479370200008,21.48794746500016],[103.19918060200013,21.487539291000132],[103.20234680100003,21.48929977300014],[103.20388794000007,21.494991302000074],[103.20804596000005,21.49752807600015],[103.2084426890001,21.499965668000073],[103.21483612100008,21.50407409800016],[103.21907043400006,21.50456047100016],[103.22124481100008,21.505540849000113],[103.22733306900005,21.508869170000082],[103.22901153500004,21.51510238700007],[103.23559570300017,21.519548416000134],[103.23686981300006,21.52127075100009],[103.23645019600008,21.52298164400014],[103.23784637400013,21.52455520700005],[103.25005340600012,21.520105362000038],[103.25310516400003,21.517183305000117],[103.26434326100002,21.515642167000124],[103.26586151200013,21.51455307100008],[103.26725769000001,21.511718751000046],[103.27368927100008,21.50864410500003],[103.28131103600003,21.503822326000147],[103.28633117600009,21.502422333000027],[103.29058837800005,21.498472213000014],[103.28801727300004,21.497392655000056],[103.28656005900007,21.494956971000136],[103.28691101100014,21.493780136000055],[103.28417968800005,21.492803575000153],[103.28370666500007,21.491756439000028],[103.28282165600012,21.491903305000108],[103.28000640900018,21.488855362000038],[103.27842712300003,21.489492417000065],[103.27485656800013,21.488302231000034],[103.27461242700008,21.48758888300017],[103.27312469500009,21.488765716000103],[103.27153015200003,21.487966538000023],[103.2712173450002,21.488679886000114],[103.26976776200007,21.48884010400019],[103.25730896100015,21.48691177400019],[103.25306701700015,21.485410691000027],[103.24211120600006,21.476415633999977],[103.24072265600012,21.472848892000115],[103.23461914000012,21.469291688000112],[103.23253631500017,21.462341310000056],[103.22627258400013,21.454053879000128],[103.22583007800012,21.44965744100017],[103.22100067200006,21.443759919000172],[103.21810913100018,21.436721802000022],[103.21011352500011,21.43064689700003]]]]}},{"type":"Feature","properties":{"gadm_id":"VNM.20.4.2_1","name":"Ẳng Nưa","name_gadm":"Ẳng Nưa","admin_type":"Xã","engtype_gadm":"Ward","boundary_source":"GADM v4.0 ADM3"},"geometry":{"type":"MultiPolygon","coordinates":[[[[103.17819213900003,21.485488892000035],[103.172866822,21.49129295400013],[103.17018127400007,21.493198396000025],[103.17000579800009,21.49703979600008],[103.16790771400002,21.50379181000011],[103.16748809700005,21.512264252000136],[103.1640472410001,21.519691467000143],[103.16450500500014,21.523195267000176],[103.16682434100005,21.52403450100013],[103.16706848200005,21.52475929200017],[103.17011261000005,21.52658081000004],[103.17520904600019,21.527244569000175],[103.18975067100018,21.53187370300003],[103.19241333000014,21.53551292400016],[103.19482421800012,21.537218094000025],[103.1976623540001,21.54197883700016],[103.1996612550002,21.542535783000062],[103.20034790000011,21.5435085310001],[103.2032623290001,21.54413604800004],[103.20469665600018,21.546747208000113],[103.20696258499999,21.54893875100015],[103.2106094350001,21.54952049300016],[103.21329498300008,21.548479081000153],[103.2157287600001,21.54892349200003],[103.21905517600004,21.55097389300016],[103.22180175700015,21.541841508000118],[103.22295379600018,21.535274505000018],[103.22269439700011,21.533075332000067],[103.22434997600004,21.528545380000082],[103.22163391200002,21.528297425000062],[103.2095947270002,21.5333690650001],[103.20673370400016,21.530170441000166],[103.206260681,21.53050422700005],[103.20580291700014,21.529289247000065],[103.2045364380001,21.529792786000087],[103.20330047500005,21.52785682700005],[103.19942474400011,21.527378082000098],[103.19889068600014,21.525978089000034],[103.195030213,21.525175094000076],[103.19383239700005,21.523046494000027],[103.19694519000012,21.51985550000012],[103.19877624600008,21.51900863800006],[103.19851684600013,21.51737403900006],[103.19980621400003,21.516736984000033],[103.20211791999998,21.516145706000145],[103.20249175999999,21.517553330000055],[103.20318603500016,21.517787933000022],[103.21063995400004,21.516054154000187],[103.21086120700016,21.516618728000026],[103.21772766100003,21.517190932999995],[103.21961974999999,21.516036987999996],[103.22080993600008,21.514087677000134],[103.21929931700004,21.512874603000114],[103.22023010300018,21.511415482000075],[103.22124481100008,21.505540849000113],[103.21907043400006,21.50456047100016],[103.21483612100008,21.50407409800016],[103.2084426890001,21.499965668000073],[103.20804596000005,21.49752807600015],[103.20388794000007,21.494991302000074],[103.20234680100003,21.48929977300014],[103.19918060200013,21.487539291000132],[103.19479370200008,21.48794746500016],[103.19180297900016,21.484975815000155],[103.19052886900005,21.484693527000047],[103.18208313100007,21.487356187000103],[103.18064880400016,21.487266540000064],[103.17819213900003,21.485488892000035]]]]}},{"type":"Feature","properties":{"gadm_id":"VNM.20.4.3_1","name":"Ẳng Tở","name_gadm":"Ẳng Tở","admin_type":"Xã","engtype_gadm":"Ward","boundary_source":"GADM v4.0 ADM3"},"geometry":{"type":"MultiPolygon","coordinates":[[[[103.26434326100002,21.515642167000124],[103.25310516400003,21.517183305000117],[103.25005340600012,21.520105362000038],[103.23784637400013,21.52455520700005],[103.23550414900006,21.529493332000186],[103.23111724900019,21.53050422700005],[103.22665405200007,21.528724671000077],[103.22434997600004,21.528545380000082],[103.22269439700011,21.533075332000067],[103.22295379600018,21.535274505000018],[103.22180175700015,21.541841508000118],[103.21905517600004,21.55097389300016],[103.22130584700017,21.553173066000113],[103.22177886900005,21.558799745000158],[103.22264099100016,21.560911179000072],[103.225242616,21.56335830600011],[103.2279357920001,21.56744194000015],[103.22898101800007,21.573459625000055],[103.23004913400018,21.575853349000056],[103.232200622,21.576623917000063],[103.23461151200019,21.579500198000062],[103.23636627200005,21.580343247000087],[103.24417877100012,21.590875626000184],[103.24768066500019,21.59272384700006],[103.25772857600009,21.600362777999976],[103.26280975400005,21.601278305000164],[103.26918792800006,21.60723304700008],[103.26963806100008,21.60811805800006],[103.26905822700007,21.611005784000042],[103.27026367300016,21.612632752000025],[103.26919555600017,21.61363029400013],[103.2692184440001,21.615819932000136],[103.2684478760001,21.616983414000117],[103.27024078400012,21.617313384000056],[103.27668762200011,21.615730285000097],[103.279464722,21.61425972100011],[103.2837142940001,21.610166549000155],[103.2852783190001,21.607774735000135],[103.28546905500008,21.59955406200004],[103.28787231500013,21.596204758000056],[103.28825378400018,21.592889785000125],[103.29184722900004,21.587783813000044],[103.29622650200008,21.58515930200008],[103.29844665600012,21.58476829600005],[103.3078842160001,21.576831817000027],[103.31085968000008,21.573495866000144],[103.31122589000017,21.569501877000164],[103.30457305800002,21.562223435000135],[103.30087280200013,21.551933288000043],[103.29740142700007,21.548568726000155],[103.29322814900007,21.54587936400003],[103.28897094700005,21.544477464000067],[103.28410339400011,21.53815841700009],[103.28009796100008,21.536882400000138],[103.27895355300006,21.535835266000163],[103.27497863700017,21.530580520000058],[103.27404785100009,21.528312684000184],[103.27050018400007,21.52524566700015],[103.26850128299998,21.525028230000032],[103.26909637400013,21.520139694000022],[103.26434326100002,21.515642167000124]]]]}},{"type":"Feature","properties":{"gadm_id":"VNM.20.4.4_1","name":"Búng Lao","name_gadm":"Búng Lao","admin_type":"Xã","engtype_gadm":"Ward","boundary_source":"GADM v4.0 ADM3"},"geometry":{"type":"MultiPolygon","coordinates":[[[[103.29058837800005,21.498472213000014],[103.28633117600009,21.502422333000027],[103.28131103600003,21.503822326000147],[103.27368927100008,21.50864410500003],[103.26725769000001,21.511718751000046],[103.26586151200013,21.51455307100008],[103.26434326100002,21.515642167000124],[103.26909637400013,21.520139694000022],[103.26850128299998,21.525028230000032],[103.27050018400007,21.52524566700015],[103.27404785100009,21.528312684000184],[103.27497863700017,21.530580520000058],[103.27895355300006,21.535835266000163],[103.28009796100008,21.536882400000138],[103.28410339400011,21.53815841700009],[103.28897094700005,21.544477464000067],[103.29322814900007,21.54587936400003],[103.29740142700007,21.548568726000155],[103.30087280200013,21.551933288000043],[103.30457305800002,21.562223435000135],[103.31122589000017,21.569501877000164],[103.31726837100018,21.568048478000094],[103.32647705000016,21.564149856000085],[103.3269500740002,21.560548782000183],[103.32842254600018,21.55731201300017],[103.33496093700018,21.55211067200014],[103.33583831800001,21.546503066000128],[103.34021759100006,21.543756485000188],[103.34259033200004,21.53505516000007],[103.34525299000006,21.533107758000085],[103.34541320700009,21.53157234200006],[103.3481826790001,21.531276703000174],[103.34888458200015,21.52995681800013],[103.35328674300018,21.527654648000066],[103.35381317100018,21.52312469600008],[103.35810089100005,21.521543504000192],[103.35756683400018,21.519502641000145],[103.35448455700015,21.51484298800017],[103.35466003500011,21.51343345700019],[103.35600280800008,21.512960434000036],[103.35635376000016,21.511777879000135],[103.35550689700017,21.51079177800017],[103.34885406600011,21.509912490999966],[103.34840393000019,21.508947374000172],[103.3480377200001,21.502887725000164],[103.34680175700004,21.50192069999997],[103.34691620000018,21.499713899000085],[103.35168457100013,21.49443435600017],[103.3536148070001,21.487888337000072],[103.34925842199999,21.487192154000127],[103.34586334300002,21.486623765000047],[103.33753967300004,21.495374680000168],[103.33496093700018,21.496330262000185],[103.3347015380001,21.49863815300006],[103.33358001700014,21.500114440000118],[103.3276062000001,21.500284195000006],[103.31937408400006,21.497083665000048],[103.31721496600011,21.497524261000137],[103.31390380800008,21.499483108000106],[103.31173706100009,21.499053955000022],[103.31069183300013,21.499589920000062],[103.31063079700004,21.498456954999995],[103.30967712500001,21.49777603300015],[103.307052612,21.49835395800011],[103.30354309000006,21.497991563000028],[103.30187225400005,21.498676300000113],[103.2997207640002,21.5010490410001],[103.2978744520002,21.50000572199997],[103.29408264200015,21.49995803800016],[103.29223632800017,21.498634338000045],[103.29058837800005,21.498472213000014]]]]}},{"type":"Feature","properties":{"gadm_id":"VNM.20.4.5_1","name":"Thị trấn Mường Ảng","name_gadm":"Mường Ảng","admin_type":"Thịtrấn","engtype_gadm":"Townlet","boundary_source":"GADM v4.0 ADM3"},"geometry":{"type":"MultiPolygon","coordinates":[[[[103.23784637400013,21.52455520700005],[103.23645019600008,21.52298164400014],[103.23686981300006,21.52127075100009],[103.23559570300017,21.519548416000134],[103.22901153500004,21.51510238700007],[103.22733306900005,21.508869170000082],[103.22124481100008,21.505540849000113],[103.22023010300018,21.511415482000075],[103.21929931700004,21.512874603000114],[103.22080993600008,21.514087677000134],[103.21961974999999,21.516036987999996],[103.21772766100003,21.517190932999995],[103.21086120700016,21.516618728000026],[103.21063995400004,21.516054154000187],[103.20318603500016,21.517787933000022],[103.20249175999999,21.517553330000055],[103.20211791999998,21.516145706000145],[103.19980621400003,21.516736984000033],[103.19851684600013,21.51737403900006],[103.19877624600008,21.51900863800006],[103.19694519000012,21.51985550000012],[103.19383239700005,21.523046494000027],[103.195030213,21.525175094000076],[103.19889068600014,21.525978089000034],[103.19942474400011,21.527378082000098],[103.20330047500005,21.52785682700005],[103.2045364380001,21.529792786000087],[103.20580291700014,21.529289247000065],[103.206260681,21.53050422700005],[103.20673370400016,21.530170441000166],[103.2095947270002,21.5333690650001],[103.22163391200002,21.528297425000062],[103.22434997600004,21.528545380000082],[103.22665405200007,21.528724671000077],[103.23111724900019,21.53050422700005],[103.23550414900006,21.529493332000186],[103.23784637400013,21.52455520700005]]]]}},{"type":"Feature","properties":{"gadm_id":"VNM.20.4.6_1","name":"Mường Đăng","name_gadm":"Mường Đăng","admin_type":"Xã","engtype_gadm":"Ward","boundary_source":"GADM v4.0 ADM3"},"geometry":{"type":"MultiPolygon","coordinates":[[[[103.16706848200005,21.52475929200017],[103.16586303600013,21.527816773000097],[103.16468811100003,21.52761459400017],[103.16340637300004,21.529218674000163],[103.16291046200013,21.528612138000085],[103.15820312500011,21.53303337000017],[103.15753173800005,21.535392761000026],[103.15549469000007,21.537813187000097],[103.15586853000008,21.544797899000173],[103.15218353200004,21.545686723000188],[103.1427764890002,21.55718803400015],[103.14162445000017,21.559972763000076],[103.13241577100018,21.563072205000026],[103.12142181400014,21.57133865500009],[103.1203460700001,21.574590683000054],[103.1161575320001,21.57969284100011],[103.11579895000011,21.582166672000085],[103.11381530700004,21.583938598000145],[103.11244964600013,21.592813491000186],[103.10998535200014,21.596721649000074],[103.10812378000014,21.5973587040001],[103.1102218630001,21.601215363000108],[103.11010742100001,21.603162766000025],[103.1070175160001,21.611349107000137],[103.10537719700017,21.613588332000063],[103.10871124300013,21.616336823000154],[103.11999511700014,21.61990928600011],[103.12554931700015,21.623651504000122],[103.12794494700012,21.623483658000055],[103.13429260200013,21.62631797900019],[103.13613891600016,21.629228593000164],[103.13971710300018,21.63245582600007],[103.1468276990002,21.62428855900015],[103.1524047850001,21.623804093000047],[103.1547851570001,21.622621536000167],[103.157791138,21.617370605000076],[103.16164398100005,21.61656379700014],[103.16307830800014,21.61302948100007],[103.16571807900016,21.61001587000004],[103.17938232400019,21.609750748000124],[103.17942047100007,21.608673097000064],[103.1826782240002,21.60527801500018],[103.18394470300012,21.605484010000055],[103.18534851100009,21.60472297700005],[103.18873596300006,21.59861373800004],[103.19092559800015,21.592685700000175],[103.189849853,21.590803147000145],[103.19062805100009,21.58893776000008],[103.1903381350001,21.584348679000072],[103.18852996800013,21.58047485300017],[103.18068695100004,21.578735352000024],[103.17936706600017,21.57752609199997],[103.18007659900013,21.57427597000003],[103.17828369100016,21.573389054000188],[103.17926025400004,21.57177162300019],[103.18264007500017,21.568582536000008],[103.18433380100015,21.568214416000103],[103.18643188499999,21.566553116000136],[103.18748474199998,21.56507110600012],[103.1906967170001,21.56505775500017],[103.19306182800011,21.56271171600008],[103.19465637300016,21.563182830000187],[103.19719695900005,21.560365678000153],[103.20352935800008,21.559894561000135],[103.2106094350001,21.54952049300016],[103.20696258499999,21.54893875100015],[103.20469665600018,21.546747208000113],[103.2032623290001,21.54413604800004],[103.20034790000011,21.5435085310001],[103.1996612550002,21.542535783000062],[103.1976623540001,21.54197883700016],[103.19482421800012,21.537218094000025],[103.19241333000014,21.53551292400016],[103.18975067100018,21.53187370300003],[103.17520904600019,21.527244569000175],[103.17011261000005,21.52658081000004],[103.16706848200005,21.52475929200017]]]]}},{"type":"Feature","properties":{"gadm_id":"VNM.20.4.7_1","name":"Mường Lạn","name_gadm":"Mường Lạn","admin_type":"Xã","engtype_gadm":"Ward","boundary_source":"GADM v4.0 ADM3"},"geometry":{"type":"MultiPolygon","coordinates":[[[[103.25113677900015,21.42481422400016],[103.248199462,21.42723655700007],[103.25457763600019,21.437683107000055],[103.25687408500005,21.443052291000072],[103.25798797500016,21.444675445000087],[103.26014709400005,21.44573402400016],[103.2592086800002,21.44772911000001],[103.25966644400006,21.45270729100008],[103.260986328,21.455654144000107],[103.26123047000016,21.460374833000174],[103.26348114000001,21.463600159000066],[103.2684021010001,21.466323852000073],[103.26980590900013,21.46788788000015],[103.27724456800019,21.464065553000182],[103.28154754700012,21.4669208520001],[103.28268432500005,21.46852111900006],[103.28509521500001,21.468385696000155],[103.2920532220001,21.471496582000157],[103.29402923700007,21.471750261000068],[103.295898437,21.473146439000118],[103.30055236800007,21.472764969000025],[103.30263519300019,21.474357604999966],[103.30693817200017,21.473503113000163],[103.30754089300018,21.474252701000182],[103.30864715600018,21.47283935700011],[103.31037140000018,21.472948074000158],[103.31198120100004,21.47164535600018],[103.31204986600017,21.474557877000052],[103.31340026900006,21.477106094000135],[103.31408691400009,21.48114395100015],[103.3179168710002,21.486793518000184],[103.31957244900002,21.485956192000174],[103.32110595799998,21.482799531000182],[103.32524871700019,21.480920793000166],[103.32842254600018,21.477317809000112],[103.325592041,21.474449157000095],[103.32357788100018,21.469772338000098],[103.3222579950002,21.46149635300003],[103.32362365800014,21.457674026000063],[103.31900787400014,21.454994203000126],[103.31575012200005,21.447780610000052],[103.31632232600015,21.441453934000037],[103.31968688900008,21.438066482000067],[103.31848907500012,21.433855057000073],[103.3188934320001,21.430303574000106],[103.31755828900003,21.423786163000045],[103.31784820500019,21.422027588000162],[103.31640625000017,21.41678047200014],[103.3170700070001,21.41423034800016],[103.31646728600009,21.41173553600015],[103.30887603700018,21.410364152],[103.30540466200011,21.40832901100009],[103.299446106,21.407926560000135],[103.29219055100003,21.402351379000038],[103.29080963100017,21.40472602799997],[103.28991699200009,21.4096279150001],[103.28718566900017,21.413965226000073],[103.28387451100008,21.41660690400016],[103.28022003200016,21.41783905000017],[103.27706909200003,21.421804428000144],[103.27460479700017,21.423583984000118],[103.2691650390002,21.4247493740001],[103.2663269040001,21.427919387000088],[103.26531982400007,21.427368164000086],[103.26223754900008,21.42079734800012],[103.2624816890002,21.41496658300008],[103.25113677900015,21.42481422400016]]]]}},{"type":"Feature","properties":{"gadm_id":"VNM.20.4.8_1","name":"Nặm Lịch","name_gadm":"Nặm Lịch","admin_type":"Xã","engtype_gadm":"Ward","boundary_source":"GADM v4.0 ADM3"},"geometry":{"type":"MultiPolygon","coordinates":[[[[103.248199462,21.42723655700007],[103.2416687010001,21.428979873999992],[103.23668670700005,21.423963547000028],[103.23126983600008,21.42299079900016],[103.22563171400009,21.42679595900006],[103.21641540500019,21.425987243999998],[103.21011352500011,21.43064689700003],[103.21810913100018,21.436721802000022],[103.22100067200006,21.443759919000172],[103.22583007800012,21.44965744100017],[103.22627258400013,21.454053879000128],[103.23253631500017,21.462341310000056],[103.23461914000012,21.469291688000112],[103.24072265600012,21.472848892000115],[103.24211120600006,21.476415633999977],[103.25306701700015,21.485410691000027],[103.25730896100015,21.48691177400019],[103.26976776200007,21.48884010400019],[103.2712173450002,21.488679886000114],[103.27153015200003,21.487966538000023],[103.27312469500009,21.488765716000103],[103.27461242700008,21.48758888300017],[103.27485656800013,21.488302231000034],[103.27842712300003,21.489492417000065],[103.28000640900018,21.488855362000038],[103.28282165600012,21.491903305000108],[103.28370666500007,21.491756439000028],[103.28417968800005,21.492803575000153],[103.28691101100014,21.493780136000055],[103.28656005900007,21.494956971000136],[103.28801727300004,21.497392655000056],[103.29058837800005,21.498472213000014],[103.29223632800017,21.498634338000045],[103.29408264200015,21.49995803800016],[103.2978744520002,21.50000572199997],[103.2997207640002,21.5010490410001],[103.30187225400005,21.498676300000113],[103.30354309000006,21.497991563000028],[103.307052612,21.49835395800011],[103.30967712500001,21.49777603300015],[103.31063079700004,21.498456954999995],[103.31069183300013,21.499589920000062],[103.31173706100009,21.499053955000022],[103.31390380800008,21.499483108000106],[103.31721496600011,21.497524261000137],[103.317344666,21.49561309900008],[103.31848907500012,21.494379044000027],[103.3179168710002,21.486793518000184],[103.31408691400009,21.48114395100015],[103.31340026900006,21.477106094000135],[103.31204986600017,21.474557877000052],[103.31198120100004,21.47164535600018],[103.31037140000018,21.472948074000158],[103.30864715600018,21.47283935700011],[103.30754089300018,21.474252701000182],[103.30693817200017,21.473503113000163],[103.30263519300019,21.474357604999966],[103.30055236800007,21.472764969000025],[103.295898437,21.473146439000118],[103.29402923700007,21.471750261000068],[103.2920532220001,21.471496582000157],[103.28509521500001,21.468385696000155],[103.28268432500005,21.46852111900006],[103.28154754700012,21.4669208520001],[103.27724456800019,21.464065553000182],[103.26980590900013,21.46788788000015],[103.2684021010001,21.466323852000073],[103.26348114000001,21.463600159000066],[103.26123047000016,21.460374833000174],[103.260986328,21.455654144000107],[103.25966644400006,21.45270729100008],[103.2592086800002,21.44772911000001],[103.26014709400005,21.44573402400016],[103.25798797500016,21.444675445000087],[103.25687408500005,21.443052291000072],[103.25457763600019,21.437683107000055],[103.248199462,21.42723655700007]]]]}},{"type":"Feature","properties":{"gadm_id":"VNM.20.4.9_1","name":"Ngối Cáy","name_gadm":"Ngối Cáy","admin_type":"Xã","engtype_gadm":"Ward","boundary_source":"GADM v4.0 ADM3"},"geometry":{"type":"MultiPolygon","coordinates":[[[[103.21905517600004,21.55097389300016],[103.2157287600001,21.54892349200003],[103.21329498300008,21.548479081000153],[103.2106094350001,21.54952049300016],[103.20352935800008,21.559894561000135],[103.19719695900005,21.560365678000153],[103.19465637300016,21.563182830000187],[103.19306182800011,21.56271171600008],[103.1906967170001,21.56505775500017],[103.18748474199998,21.56507110600012],[103.18643188499999,21.566553116000136],[103.18433380100015,21.568214416000103],[103.18264007500017,21.568582536000008],[103.17926025400004,21.57177162300019],[103.17828369100016,21.573389054000188],[103.18007659900013,21.57427597000003],[103.17936706600017,21.57752609199997],[103.18068695100004,21.578735352000024],[103.18852996800013,21.58047485300017],[103.1903381350001,21.584348679000072],[103.19062805100009,21.58893776000008],[103.189849853,21.590803147000145],[103.19092559800015,21.592685700000175],[103.18873596300006,21.59861373800004],[103.18534851100009,21.60472297700005],[103.18394470300012,21.605484010000055],[103.1826782240002,21.60527801500018],[103.17942047100007,21.608673097000064],[103.17938232400019,21.609750748000124],[103.16571807900016,21.61001587000004],[103.16307830800014,21.61302948100007],[103.16164398100005,21.61656379700014],[103.16703033499999,21.620634080000173],[103.17322540300012,21.623249055000088],[103.17893219100017,21.623889923000036],[103.18206787000014,21.623323441000025],[103.1877746580002,21.62527465800008],[103.18954467800006,21.625230790000046],[103.19732666000004,21.62087249800004],[103.19848632700018,21.622566223000092],[103.20238495000007,21.62330246000016],[103.20356750500014,21.624380113000086],[103.20822906600006,21.62420844999997],[103.2143020630001,21.625602723000156],[103.2167892450002,21.624376298000186],[103.222244263,21.624437333000174],[103.22451019400017,21.62258148100011],[103.22784423800016,21.623468400000036],[103.2303619380001,21.62160682800004],[103.23348236200019,21.620950700000094],[103.23704528900004,21.62048912099999],[103.24076080300011,21.621690750000027],[103.24209594800004,21.61942672800012],[103.24535369800009,21.617965698000035],[103.24989318900009,21.61828041200016],[103.25435638500005,21.619709014000023],[103.25743102900009,21.618638992000115],[103.26000213700001,21.620307922000052],[103.2684478760001,21.616983414000117],[103.2692184440001,21.615819932000136],[103.26919555600017,21.61363029400013],[103.27026367300016,21.612632752000025],[103.26905822700007,21.611005784000042],[103.26963806100008,21.60811805800006],[103.26918792800006,21.60723304700008],[103.26280975400005,21.601278305000164],[103.25772857600009,21.600362777999976],[103.24768066500019,21.59272384700006],[103.24417877100012,21.590875626000184],[103.23636627200005,21.580343247000087],[103.23461151200019,21.579500198000062],[103.232200622,21.576623917000063],[103.23004913400018,21.575853349000056],[103.22898101800007,21.573459625000055],[103.2279357920001,21.56744194000015],[103.225242616,21.56335830600011],[103.22264099100016,21.560911179000072],[103.22177886900005,21.558799745000158],[103.22130584700017,21.553173066000113],[103.21905517600004,21.55097389300016]]]]}}]}