{
"type": "FeatureCollection",
"name": "muong_ang_boundary",
"crs": { "type": "name", "properties": { "name": "urn:ogc:def:crs:OGC:1.3:CRS84" } },
"features": [
{ "type": "Feature", "properties": { "GID_2": "VNM.20.4_1", "GID_0": "VNM", "COUNTRY": "Vietnam", "GID_1": "VNM.20_1", "NAME_1": "Điện Biên", "NL_NAME_1": "NA", "NAME_2": "Mường Ảng", "VARNAME_2": "Muong Ang", "NL_NAME_2": "NA", "TYPE_2": "Huyện", "ENGTYPE_2": "District", "CC_2": "NA", "HASC_2": "VN.DB.DB" }, "geometry": { "type": "MultiPolygon", "coordinates": [ [ [ [ 103.354240418000131, 21.474481584000046 ], [ 103.360801696000124, 21.472944259000087 ], [ 103.363807679000047, 21.472940444000074 ], [ 103.369102477000126, 21.474987030000079 ], [ 103.372634888000107, 21.477766038000027 ], [ 103.382057189000136, 21.480024338000135 ], [ 103.402839661000201, 21.481809617000181 ], [ 103.406723022000051, 21.481296540000073 ], [ 103.409851074000073, 21.480014801000152 ], [ 103.410850526000161, 21.479076386000088 ], [ 103.411880494000116, 21.474409103000141 ], [ 103.413291930000184, 21.47277641400018 ], [ 103.414497375000167, 21.464946747000056 ], [ 103.413200378000056, 21.461248399000169 ], [ 103.409950256000116, 21.456317902000137 ], [ 103.410186767000198, 21.452003478000051 ], [ 103.409393310000041, 21.448963166000169 ], [ 103.414550782000049, 21.434499740000035 ], [ 103.412948609000125, 21.427795411000147 ], [ 103.412178040000015, 21.427770615000043 ], [ 103.41078949000007, 21.429264070000102 ], [ 103.405174255000077, 21.431161881000151 ], [ 103.401000977000081, 21.431648254000152 ], [ 103.397674561000201, 21.435134888000164 ], [ 103.39186096100002, 21.436794280000186 ], [ 103.38798522899998, 21.434204101000148 ], [ 103.385726929000043, 21.433759690000102 ], [ 103.382789611000192, 21.43412971500004 ], [ 103.378097534000176, 21.435974122000175 ], [ 103.37964630100015, 21.430011750000119 ], [ 103.378860474000078, 21.428884507000191 ], [ 103.376266480000197, 21.42792511000016 ], [ 103.371353150000061, 21.428979874 ], [ 103.366172790000121, 21.429073334000122 ], [ 103.359642029000042, 21.427713395000126 ], [ 103.358070373000032, 21.425092696999968 ], [ 103.354026795000095, 21.424690246000182 ], [ 103.349151612000071, 21.428380966000191 ], [ 103.34633636500007, 21.429346084000088 ], [ 103.342971802000136, 21.428810119000104 ], [ 103.341667176000044, 21.427509308000026 ], [ 103.337707519000048, 21.417587280000077 ], [ 103.335464478000176, 21.416028977000053 ], [ 103.331077575000052, 21.415426254000181 ], [ 103.323310851000087, 21.414117813000189 ], [ 103.319839478, 21.411287308 ], [ 103.316467286000091, 21.411735536000151 ], [ 103.308876037000175, 21.410364152 ], [ 103.305404662000115, 21.408329011000092 ], [ 103.299446106, 21.407926560000135 ], [ 103.292190551000033, 21.402351379000038 ], [ 103.290809631000172, 21.40472602799997 ], [ 103.289916992000087, 21.409627915000101 ], [ 103.287185669000166, 21.413965226000073 ], [ 103.283874511000079, 21.416606904000162 ], [ 103.280220032000159, 21.417839050000168 ], [ 103.277069092000033, 21.421804428000144 ], [ 103.274604797000165, 21.423583984000118 ], [ 103.2691650390002, 21.4247493740001 ], [ 103.266326904000096, 21.427919387000088 ], [ 103.265319824000073, 21.427368164000086 ], [ 103.262237549000076, 21.420797348000121 ], [ 103.262481689000197, 21.41496658300008 ], [ 103.251136779000149, 21.424814224000158 ], [ 103.248199462, 21.427236557000072 ], [ 103.241668701000094, 21.428979874 ], [ 103.236686707000047, 21.423963547000028 ], [ 103.231269836000081, 21.422990799000161 ], [ 103.225631714000087, 21.42679595900006 ], [ 103.216415405000191, 21.425987244 ], [ 103.210113525000111, 21.430646897000031 ], [ 103.203109741000048, 21.428876877000107 ], [ 103.200424195000096, 21.428907395000124 ], [ 103.195732116000102, 21.43174362100018 ], [ 103.195137023000143, 21.434938430999978 ], [ 103.193649293000135, 21.436336517000029 ], [ 103.18780517600004, 21.437097550000033 ], [ 103.184791565000182, 21.440298080000161 ], [ 103.184295655000199, 21.442934036000111 ], [ 103.182907105000027, 21.445295334000093 ], [ 103.181465149000132, 21.446268082000131 ], [ 103.182518006000123, 21.448211669999978 ], [ 103.17853546200007, 21.454694749000055 ], [ 103.177093505000073, 21.467079162000061 ], [ 103.177970886000082, 21.469694137000147 ], [ 103.179832458000135, 21.470432282 ], [ 103.178474427000083, 21.474309921000099 ], [ 103.178192139000032, 21.485488892000035 ], [ 103.172866822, 21.49129295400013 ], [ 103.170181274000072, 21.493198396000025 ], [ 103.170005798000091, 21.497039796000081 ], [ 103.167907714000023, 21.503791810000109 ], [ 103.167488097000046, 21.512264252000136 ], [ 103.164047241000105, 21.519691467000143 ], [ 103.164505005000137, 21.523195267000176 ], [ 103.166824341000051, 21.524034501000131 ], [ 103.167068482000047, 21.524759292000169 ], [ 103.165863036000133, 21.527816773000097 ], [ 103.164688111000032, 21.52761459400017 ], [ 103.163406373000043, 21.529218674000163 ], [ 103.162910462000127, 21.528612138000085 ], [ 103.158203125000114, 21.533033370000169 ], [ 103.157531738000046, 21.535392761000026 ], [ 103.155494690000069, 21.537813187000097 ], [ 103.155868530000077, 21.544797899000173 ], [ 103.152183532000038, 21.545686723000188 ], [ 103.142776489000198, 21.557188034000148 ], [ 103.141624450000165, 21.559972763000076 ], [ 103.132415771000183, 21.563072205000026 ], [ 103.121421814000144, 21.571338655000091 ], [ 103.120346070000096, 21.574590683000054 ], [ 103.116157532000102, 21.57969284100011 ], [ 103.115798950000112, 21.582166672000085 ], [ 103.113815307000039, 21.583938598000145 ], [ 103.11244964600013, 21.592813491000186 ], [ 103.109985352000137, 21.596721649000074 ], [ 103.108123780000142, 21.597358704000101 ], [ 103.110221863000106, 21.601215363000108 ], [ 103.110107421, 21.603162766000025 ], [ 103.107017516000099, 21.611349107000137 ], [ 103.105377197000166, 21.613588332000063 ], [ 103.10871124300013, 21.616336823000154 ], [ 103.119995117000144, 21.619909286000109 ], [ 103.12554931700015, 21.623651504000122 ], [ 103.127944947000117, 21.623483658000055 ], [ 103.13429260200013, 21.626317979000191 ], [ 103.136138916000164, 21.629228593000164 ], [ 103.13971710300018, 21.632455826000069 ], [ 103.146827699000198, 21.624288559000149 ], [ 103.152404785000101, 21.623804093000047 ], [ 103.154785157000106, 21.622621536000167 ], [ 103.157791138, 21.617370605000076 ], [ 103.161643981000054, 21.61656379700014 ], [ 103.167030335, 21.620634080000173 ], [ 103.173225403000117, 21.623249055000088 ], [ 103.178932191000172, 21.623889923000036 ], [ 103.182067870000139, 21.623323441000025 ], [ 103.187774658000194, 21.62527465800008 ], [ 103.189544678000061, 21.625230790000046 ], [ 103.197326660000044, 21.62087249800004 ], [ 103.198486327000182, 21.622566223000092 ], [ 103.202384950000067, 21.623302460000161 ], [ 103.203567505000137, 21.624380113000086 ], [ 103.208229066000058, 21.624208449999969 ], [ 103.214302063000105, 21.625602723000156 ], [ 103.2167892450002, 21.624376298000186 ], [ 103.222244263, 21.624437333000174 ], [ 103.224510194000175, 21.622581481000111 ], [ 103.227844238000159, 21.623468400000036 ], [ 103.230361938000101, 21.62160682800004 ], [ 103.233482362000188, 21.620950700000094 ], [ 103.237045289000037, 21.620489121 ], [ 103.240760803000114, 21.621690750000027 ], [ 103.242095948000042, 21.619426728000121 ], [ 103.245353698000088, 21.617965698000035 ], [ 103.24989318900009, 21.618280412000161 ], [ 103.254356385000051, 21.619709014000023 ], [ 103.257431029000088, 21.618638992000115 ], [ 103.260002137000015, 21.620307922000052 ], [ 103.268447876000096, 21.616983414000117 ], [ 103.270240784000123, 21.617313384000056 ], [ 103.276687622000111, 21.615730285000097 ], [ 103.279464722, 21.61425972100011 ], [ 103.283714294000106, 21.610166549000155 ], [ 103.285278319000099, 21.607774735000135 ], [ 103.285469055000078, 21.599554062000038 ], [ 103.287872315000129, 21.596204758000056 ], [ 103.288253784000176, 21.592889785000125 ], [ 103.291847229000041, 21.587783813000044 ], [ 103.296226502000081, 21.585159302000079 ], [ 103.298446656000124, 21.58476829600005 ], [ 103.307884216000105, 21.576831817000027 ], [ 103.310859680000078, 21.573495866000144 ], [ 103.311225890000173, 21.569501877000164 ], [ 103.317268371000182, 21.568048478000094 ], [ 103.326477050000165, 21.564149856000085 ], [ 103.326950074000194, 21.560548782000183 ], [ 103.328422546000184, 21.557312013000171 ], [ 103.334960937000176, 21.55211067200014 ], [ 103.335838318000015, 21.546503066000128 ], [ 103.340217591000055, 21.543756485000188 ], [ 103.342590332000043, 21.53505516000007 ], [ 103.345252990000063, 21.533107758000085 ], [ 103.345413207000092, 21.531572342000061 ], [ 103.348182679000104, 21.531276703000174 ], [ 103.348884582000153, 21.52995681800013 ], [ 103.353286743000183, 21.527654648000066 ], [ 103.353813171000184, 21.523124696000082 ], [ 103.358100891000049, 21.521543504000192 ], [ 103.357566834000181, 21.519502641000145 ], [ 103.354484557000148, 21.514842988000169 ], [ 103.354660035000109, 21.51343345700019 ], [ 103.356002808000085, 21.512960434000036 ], [ 103.356353760000161, 21.511777879000135 ], [ 103.355506897000168, 21.510791778000169 ], [ 103.348854066000115, 21.509912490999966 ], [ 103.348403930000188, 21.508947374000172 ], [ 103.348037720000093, 21.502887725000164 ], [ 103.346801757000037, 21.501920699999971 ], [ 103.34691620000018, 21.499713899000085 ], [ 103.351684571000135, 21.49443435600017 ], [ 103.353614807000099, 21.487888337000072 ], [ 103.349258422, 21.487192154000127 ], [ 103.349105835000103, 21.478277207000133 ], [ 103.351516723000088, 21.475753784000119 ], [ 103.354240418000131, 21.474481584000046 ] ] ] ] } }
]
}
